KUIPER-00053            
1 64513U 25134P   25289.29093381  .00005283  00000+0  49311-3 0  9993
2 64513  51.8948 141.9302 0003086 176.8149 183.2840 14.95602510 18827
KUIPER-00054            
1 64514U 25134Q   25290.33336806 -.00565381  00000+0 -38935-1 0  9993
2 64514  51.8851 134.0716 0007086 174.5404 157.6347 15.07844381  2138
KUIPER-00055            
1 64515U 25134R   25290.17903953  .00034937  00000+0  15728-2 0  9991
2 64515  51.8868 133.9043 0000754 347.3126  12.7835 15.20756523 19017
KUIPER-00056            
1 64516U 25134S   25290.33336806 -.01090328  00000+0 -12396+0 0  9991
2 64516  51.9118 138.1701 0002693 172.6235  50.4145 14.88688666  4774
KUIPER-00057            
1 64517U 25134T   25290.26546579  .00005685  00000+0  77345-3 0  9992
2 64517  51.8988 145.8302 0009615 162.1087 198.0215 14.79950920 18857
KUIPER-00058            
1 64518U 25134U   25290.33336806 -.00037394  00000+0 -41867-2 0  9994
2 64518  51.8951 139.5570 0004545 193.7327  56.1324 14.86447682  5775
KUIPER-00059            
1 64519U 25134V   25290.33336806 -.01526473  00000+0 -12919+0 0  9990
2 64519  51.8942 135.5641 0002041 338.0435  92.1114 15.00719484  5512
KUIPER-00060            
1 64520U 25134W   25290.33336806 -.01191070  00000+0 -12036+0 0  9993
2 64520  51.8947 135.9841 0001633 187.6067 259.2954 14.93628910  2542
